SENTINEL-1A             
1 39634U 14016A   26196.96176132 -.00000055  00000+0 -20525-5 0  9996
2 39634  98.1768 204.0743 0001404  86.3602 273.7758 14.59195854654218
SENTINEL-1C             
1 62261U 24235A   26197.00116535  .00000081  00000+0  26954-4 0  9997
2 62261  98.1824 203.9003 0001388  90.2275 269.9084 14.59198044 85616
SENTINEL-1D             
1 66315U 25251A   26196.89846115 -.00000077  00000+0 -66213-5 0  9990
2 66315  98.1841 203.8543 0001321  88.6998 271.4353 14.59197076 36917
