{"fetched_at":"2026-07-16T06:43:17.515Z","source":"https://celestrak.org/NORAD/elements/gp.php?NAME=SENTINEL&FORMAT=JSON","constellation":"sentinel-1","records":[{"OBJECT_NAME":"SENTINEL-1A","OBJECT_ID":"2014-016A","EPOCH":"2026-07-15T23:04:56.178048","CLASSIFICATION_TYPE":"U","MEAN_MOTION":14.59195854,"ECCENTRICITY":0.00014046,"INCLINATION":98.1768,"RA_OF_ASC_NODE":204.0743,"ARG_OF_PERICENTER":86.3602,"MEAN_ANOMALY":273.7758,"EPHEMERIS_TYPE":0,"NORAD_CAT_ID":39634,"ELEMENT_SET_NO":999,"REV_AT_EPOCH":65421,"BSTAR":-0.000002052454,"MEAN_MOTION_DOT":-5.5e-7,"MEAN_MOTION_DDOT":0},{"OBJECT_NAME":"SENTINEL-1C","OBJECT_ID":"2024-235A","EPOCH":"2026-07-16T00:01:40.686240","CLASSIFICATION_TYPE":"U","MEAN_MOTION":14.59198044,"ECCENTRICITY":0.00013887,"INCLINATION":98.1824,"RA_OF_ASC_NODE":203.9003,"ARG_OF_PERICENTER":90.2275,"MEAN_ANOMALY":269.9084,"EPHEMERIS_TYPE":0,"NORAD_CAT_ID":62261,"ELEMENT_SET_NO":999,"REV_AT_EPOCH":8561,"BSTAR":0.000026953996,"MEAN_MOTION_DOT":8.1e-7,"MEAN_MOTION_DDOT":0},{"OBJECT_NAME":"SENTINEL-1D","OBJECT_ID":"2025-251A","EPOCH":"2026-07-15T21:33:47.043360","CLASSIFICATION_TYPE":"U","MEAN_MOTION":14.59197076,"ECCENTRICITY":0.00013215,"INCLINATION":98.1841,"RA_OF_ASC_NODE":203.8543,"ARG_OF_PERICENTER":88.6998,"MEAN_ANOMALY":271.4353,"EPHEMERIS_TYPE":0,"NORAD_CAT_ID":66315,"ELEMENT_SET_NO":999,"REV_AT_EPOCH":3691,"BSTAR":-0.00000662125,"MEAN_MOTION_DOT":-7.7e-7,"MEAN_MOTION_DDOT":0}]}
